[
  {
    "OBJECT_NAME": "STARLINK-4146",
    "OBJECT_ID": "22086BE",
    "EPOCH": "2025-11-11T06:24:15.064992",
    "MEAN_MOTION": 15.088391,
    "ECCENTRICITY": 0.0001191,
    "INCLINATION": 53.2179,
    "RA_OF_ASC_NODE": 345.5757,
    "ARG_OF_PERICENTER": 92.1456,
    "MEAN_ANOMALY": 267.9673,
    "EPHEMERIS_TYPE": 0,
    "CLASSIFICATION_TYPE": "U",
    "NORAD_CAT_ID": 53294,
    "ELEMENT_SET_NO": 999,
    "REV_AT_EPOCH": 18349,
    "BSTAR": 2.7112000000000004e-05,
    "MEAN_MOTION_DOT": 1.44e-06,
    "MEAN_MOTION_DDOT": 0.0,
    "TLE_LINE1": "1 53294U 22086BE  25315.26684103  .00000144  00000+0  27112-4 0  9992",
    "TLE_LINE2": "2 53294  53.2179 345.5757 0001191  92.1456 267.9673 15.08839100183497",
    "COMMENT": "Grouped by shell and plane from TLE"
  },
  {
    "OBJECT_NAME": "STARLINK-5277",
    "OBJECT_ID": "23010A",
    "EPOCH": "2025-11-11T06:08:32.254368",
    "MEAN_MOTION": 14.98333532,
    "ECCENTRICITY": 0.0002964,
    "INCLINATION": 69.9996,
    "RA_OF_ASC_NODE": 343.1521,
    "ARG_OF_PERICENTER": 269.8002,
    "MEAN_ANOMALY": 90.2817,
    "EPHEMERIS_TYPE": 0,
    "CLASSIFICATION_TYPE": "U",
    "NORAD_CAT_ID": 55269,
    "ELEMENT_SET_NO": 999,
    "REV_AT_EPOCH": 15532,
    "BSTAR": 2.9407e-05,
    "MEAN_MOTION_DOT": 2.58e-06,
    "MEAN_MOTION_DDOT": 0.0,
    "TLE_LINE1": "1 55269U 23010A   25315.25592887  .00000258  00000+0  29407-4 0  9995",
    "TLE_LINE2": "2 55269  69.9996 343.1521 0002964 269.8002  90.2817 14.98333532155328",
    "COMMENT": "Grouped by shell and plane from TLE"
  },
  {
    "OBJECT_NAME": "STARLINK-5306",
    "OBJECT_ID": "23010C",
    "EPOCH": "2025-11-11T06:14:33.103104",
    "MEAN_MOTION": 14.98333835,
    "ECCENTRICITY": 0.0003229,
    "INCLINATION": 70.0001,
    "RA_OF_ASC_NODE": 343.1687,
    "ARG_OF_PERICENTER": 266.1589,
    "MEAN_ANOMALY": 93.9201,
    "EPHEMERIS_TYPE": 0,
    "CLASSIFICATION_TYPE": "U",
    "NORAD_CAT_ID": 55271,
    "ELEMENT_SET_NO": 999,
    "REV_AT_EPOCH": 15504,
    "BSTAR": 1.0083000000000002e-05,
    "MEAN_MOTION_DOT": 2.7e-07,
    "MEAN_MOTION_DDOT": 0.0,
    "TLE_LINE1": "1 55271U 23010C   25315.26010536  .00000027  00000+0  10083-4 0  9999",
    "TLE_LINE2": "2 55271  70.0001 343.1687 0003229 266.1589  93.9201 14.98333835155041",
    "COMMENT": "Grouped by shell and plane from TLE"
  },
  {
    "OBJECT_NAME": "STARLINK-5310",
    "OBJECT_ID": "23010D",
    "EPOCH": "2025-11-11T07:26:38.321664",
    "MEAN_MOTION": 14.98334289,
    "ECCENTRICITY": 0.0003113,
    "INCLINATION": 69.9995,
    "RA_OF_ASC_NODE": 342.9442,
    "ARG_OF_PERICENTER": 269.9083,
    "MEAN_ANOMALY": 90.1719,
    "EPHEMERIS_TYPE": 0,
    "CLASSIFICATION_TYPE": "U",
    "NORAD_CAT_ID": 55272,
    "ELEMENT_SET_NO": 999,
    "REV_AT_EPOCH": 15505,
    "BSTAR": 9.6055e-05,
    "MEAN_MOTION_DOT": 1.053e-05,
    "MEAN_MOTION_DDOT": 0.0,
    "TLE_LINE1": "1 55272U 23010D   25315.31016576  .00001053  00000+0  96055-4 0  9999",
    "TLE_LINE2": "2 55272  69.9995 342.9442 0003113 269.9083  90.1719 14.98334289155057",
    "COMMENT": "Grouped by shell and plane from TLE"
  },
  {
    "OBJECT_NAME": "STARLINK-5291",
    "OBJECT_ID": "23010E",
    "EPOCH": "2025-11-11T06:50:34.717920",
    "MEAN_MOTION": 14.98329656,
    "ECCENTRICITY": 0.0003136,
    "INCLINATION": 69.9993,
    "RA_OF_ASC_NODE": 342.8576,
    "ARG_OF_PERICENTER": 270.9091,
    "MEAN_ANOMALY": 89.1709,
    "EPHEMERIS_TYPE": 0,
    "CLASSIFICATION_TYPE": "U",
    "NORAD_CAT_ID": 55273,
    "ELEMENT_SET_NO": 999,
    "REV_AT_EPOCH": 15505,
    "BSTAR": 0.0,
    "MEAN_MOTION_DOT": -2.51e-06,
    "MEAN_MOTION_DDOT": 0.0,
    "TLE_LINE1": "1 55273U 23010E   25315.28512405 -.00000251  00000+0 -13224-4 0  9996",
    "TLE_LINE2": "2 55273  69.9993 342.8576 0003136 270.9091  89.1709 14.98329656155058",
    "COMMENT": "Grouped by shell and plane from TLE"
  },
  {
    "OBJECT_NAME": "STARLINK-5299",
    "OBJECT_ID": "23010J",
    "EPOCH": "2025-11-11T05:56:31.083936",
    "MEAN_MOTION": 14.98337573,
    "ECCENTRICITY": 0.0003343,
    "INCLINATION": 69.9994,
    "RA_OF_ASC_NODE": 343.1235,
    "ARG_OF_PERICENTER": 270.7352,
    "MEAN_ANOMALY": 89.3424,
    "EPHEMERIS_TYPE": 0,
    "CLASSIFICATION_TYPE": "U",
    "NORAD_CAT_ID": 55277,
    "ELEMENT_SET_NO": 999,
    "REV_AT_EPOCH": 15504,
    "BSTAR": 0.0,
    "MEAN_MOTION_DOT": -5.73e-06,
    "MEAN_MOTION_DDOT": 0.0,
    "TLE_LINE1": "1 55277U 23010J   25315.24758199 -.00000573  00000+0 -40219-4 0  9999",
    "TLE_LINE2": "2 55277  69.9994 343.1235 0003343 270.7352  89.3424 14.98337573155049",
    "COMMENT": "Grouped by shell and plane from TLE"
  },
  {
    "OBJECT_NAME": "STARLINK-5289",
    "OBJECT_ID": "23010K",
    "EPOCH": "2025-11-11T07:08:36.709440",
    "MEAN_MOTION": 14.98327446,
    "ECCENTRICITY": 0.0003129,
    "INCLINATION": 69.999,
    "RA_OF_ASC_NODE": 342.8967,
    "ARG_OF_PERICENTER": 268.3249,
    "MEAN_ANOMALY": 91.7551,
    "EPHEMERIS_TYPE": 0,
    "CLASSIFICATION_TYPE": "U",
    "NORAD_CAT_ID": 55278,
    "ELEMENT_SET_NO": 999,
    "REV_AT_EPOCH": 15504,
    "BSTAR": 0.0,
    "MEAN_MOTION_DOT": -2.167e-05,
    "MEAN_MOTION_DDOT": 0.0,
    "TLE_LINE1": "1 55278U 23010K   25315.29764710 -.00002167  00000+0 -17389-3 0  9993",
    "TLE_LINE2": "2 55278  69.9990 342.8967 0003129 268.3249  91.7551 14.98327446155040",
    "COMMENT": "Grouped by shell and plane from TLE"
  },
  {
    "OBJECT_NAME": "STARLINK-5331",
    "OBJECT_ID": "23010M",
    "EPOCH": "2025-11-11T06:26:34.221696",
    "MEAN_MOTION": 14.98332402,
    "ECCENTRICITY": 0.0002981,
    "INCLINATION": 69.9994,
    "RA_OF_ASC_NODE": 343.1872,
    "ARG_OF_PERICENTER": 267.9046,
    "MEAN_ANOMALY": 92.1771,
    "EPHEMERIS_TYPE": 0,
    "CLASSIFICATION_TYPE": "U",
    "NORAD_CAT_ID": 55280,
    "ELEMENT_SET_NO": 999,
    "REV_AT_EPOCH": 15503,
    "BSTAR": 4.8297e-05,
    "MEAN_MOTION_DOT": 4.83e-06,
    "MEAN_MOTION_DDOT": 0.0,
    "TLE_LINE1": "1 55280U 23010M   25315.26845164  .00000483  00000+0  48297-4 0  9996",
    "TLE_LINE2": "2 55280  69.9994 343.1872 0002981 267.9046  92.1771 14.98332402155037",
    "COMMENT": "Grouped by shell and plane from TLE"
  },
  {
    "OBJECT_NAME": "STARLINK-5298",
    "OBJECT_ID": "23010N",
    "EPOCH": "2025-11-11T07:20:37.906656",
    "MEAN_MOTION": 14.98336815,
    "ECCENTRICITY": 0.0003143,
    "INCLINATION": 69.9993,
    "RA_OF_ASC_NODE": 342.9248,
    "ARG_OF_PERICENTER": 273.4334,
    "MEAN_ANOMALY": 86.6465,
    "EPHEMERIS_TYPE": 0,
    "CLASSIFICATION_TYPE": "U",
    "NORAD_CAT_ID": 55281,
    "ELEMENT_SET_NO": 999,
    "REV_AT_EPOCH": 15504,
    "BSTAR": 0.0,
    "MEAN_MOTION_DOT": -6.13e-06,
    "MEAN_MOTION_DDOT": 0.0,
    "TLE_LINE1": "1 55281U 23010N   25315.30599429 -.00000613  00000+0 -43575-4 0  9993",
    "TLE_LINE2": "2 55281  69.9993 342.9248 0003143 273.4334  86.6465 14.98336815155045",
    "COMMENT": "Grouped by shell and plane from TLE"
  },
  {
    "OBJECT_NAME": "STARLINK-5330",
    "OBJECT_ID": "23010P",
    "EPOCH": "2025-11-11T06:44:48.255648",
    "MEAN_MOTION": 14.98319647,
    "ECCENTRICITY": 0.0003355,
    "INCLINATION": 69.9991,
    "RA_OF_ASC_NODE": 342.8358,
    "ARG_OF_PERICENTER": 266.7939,
    "MEAN_ANOMALY": 93.2836,
    "EPHEMERIS_TYPE": 0,
    "CLASSIFICATION_TYPE": "U",
    "NORAD_CAT_ID": 55282,
    "ELEMENT_SET_NO": 999,
    "REV_AT_EPOCH": 15504,
    "BSTAR": 0.00011907,
    "MEAN_MOTION_DOT": 1.328e-05,
    "MEAN_MOTION_DDOT": 0.0,
    "TLE_LINE1": "1 55282U 23010P   25315.28111407  .00001328  00000+0  11907-3 0  9992",
    "TLE_LINE2": "2 55282  69.9991 342.8358 0003355 266.7939  93.2836 14.98319647155046",
    "COMMENT": "Grouped by shell and plane from TLE"
  },
  {
    "OBJECT_NAME": "STARLINK-5317",
    "OBJECT_ID": "23010Q",
    "EPOCH": "2025-11-11T07:14:36.945600",
    "MEAN_MOTION": 14.98333856,
    "ECCENTRICITY": 0.0003421,
    "INCLINATION": 69.9991,
    "RA_OF_ASC_NODE": 342.9112,
    "ARG_OF_PERICENTER": 270.7332,
    "MEAN_ANOMALY": 89.3435,
    "EPHEMERIS_TYPE": 0,
    "CLASSIFICATION_TYPE": "U",
    "NORAD_CAT_ID": 55283,
    "ELEMENT_SET_NO": 999,
    "REV_AT_EPOCH": 15504,
    "BSTAR": 0.0,
    "MEAN_MOTION_DOT": -1.95e-06,
    "MEAN_MOTION_DDOT": 0.0,
    "TLE_LINE1": "1 55283U 23010Q   25315.30181650 -.00000195  00000+0 -85627-5 0  9998",
    "TLE_LINE2": "2 55283  69.9991 342.9112 0003421 270.7332  89.3435 14.98333856155041",
    "COMMENT": "Grouped by shell and plane from TLE"
  },
  {
    "OBJECT_NAME": "STARLINK-5337",
    "OBJECT_ID": "23010R",
    "EPOCH": "2025-11-11T06:44:34.194912",
    "MEAN_MOTION": 14.98335754,
    "ECCENTRICITY": 0.0003009,
    "INCLINATION": 69.9995,
    "RA_OF_ASC_NODE": 342.8349,
    "ARG_OF_PERICENTER": 271.3094,
    "MEAN_ANOMALY": 88.772,
    "EPHEMERIS_TYPE": 0,
    "CLASSIFICATION_TYPE": "U",
    "NORAD_CAT_ID": 55284,
    "ELEMENT_SET_NO": 999,
    "REV_AT_EPOCH": 15503,
    "BSTAR": 2.2456000000000003e-05,
    "MEAN_MOTION_DOT": 1.75e-06,
    "MEAN_MOTION_DDOT": 0.0,
    "TLE_LINE1": "1 55284U 23010R   25315.28095133  .00000175  00000+0  22456-4 0  9992",
    "TLE_LINE2": "2 55284  69.9995 342.8349 0003009 271.3094  88.7720 14.98335754155039",
    "COMMENT": "Grouped by shell and plane from TLE"
  },
  {
    "OBJECT_NAME": "STARLINK-5286",
    "OBJECT_ID": "23010AB",
    "EPOCH": "2025-11-11T06:56:34.922976",
    "MEAN_MOTION": 14.98334838,
    "ECCENTRICITY": 0.0003048,
    "INCLINATION": 69.9991,
    "RA_OF_ASC_NODE": 342.8634,
    "ARG_OF_PERICENTER": 270.2113,
    "MEAN_ANOMALY": 89.8697,
    "EPHEMERIS_TYPE": 0,
    "CLASSIFICATION_TYPE": "U",
    "NORAD_CAT_ID": 55294,
    "ELEMENT_SET_NO": 999,
    "REV_AT_EPOCH": 15504,
    "BSTAR": 4.4614000000000003e-05,
    "MEAN_MOTION_DOT": 4.39e-06,
    "MEAN_MOTION_DDOT": 0.0,
    "TLE_LINE1": "1 55294U 23010AB  25315.28929309  .00000439  00000+0  44614-4 0  9997",
    "TLE_LINE2": "2 55294  69.9991 342.8634 0003048 270.2113  89.8697 14.98334838155044",
    "COMMENT": "Grouped by shell and plane from TLE"
  }
]